H1 CPF 01  gfz 2021 08 23 12  7352 tandemx   
H2 1003001  6202 36605    2021 08 23 12 59 42 2021 08 28 00 00 42   120 1 1  0 0 0
H9
10 0 59452   2862.000000  0    -167573.662   3165290.728   6105375.783
10 0 59452   2982.000000  0      83077.440   3925417.738   5649791.611
10 0 59452   3102.000000  0     344941.739   4612503.902   5094834.546
10 0 59452   3222.000000  0     612059.069   5214375.613   4450232.083
10 0 59452   3342.000000  0     878175.346   5720449.187   3727297.822
10 0 59452   3462.000000  0    1136880.903   6121923.815   2938737.893
10 0 59452   3582.000000  0    1381759.245   6411949.966   2098429.548
10 0 59452   3702.000000  0    1606536.515   6585753.417   1221170.018
10 0 59452   3822.000000  0    1805230.732   6640719.791    322410.134
10 0 59452   3942.000000  0    1972296.733   6576434.660   -582025.912
10 0 59452   4062.000000  0    2102762.463   6394679.924  -1476227.211
10 0 59452   4182.000000  0    2192353.949   6099386.906  -2344483.588
10 0 59452   4302.000000  0    2237605.827   5696547.149  -3171568.269
10 0 59452   4422.000000  0    2235954.535   5194082.758  -3943009.782
10 0 59452   4542.000000  0    2185811.709   4601679.292  -4645346.239
10 0 59452   4662.000000  0    2086616.015   3930587.677  -5266356.461
10 0 59452   4782.000000  0    1938863.559   3193401.147  -5795265.093
10 0 59452   4902.000000  0    1744116.233   2403811.958  -6222920.330
10 0 59452   5022.000000  0    1504987.810   1576352.773  -6541940.610
10 0 59452   5142.000000  0    1225109.839    726129.633  -6746830.424
10 0 59452   5262.000000  0     909076.645   -131450.756  -6834066.082
10 0 59452   5382.000000  0     562369.926   -980955.394  -6802149.271
10 0 59452   5502.000000  0     191265.228  -1807195.927  -6651628.286
10 0 59452   5622.000000  0    -197277.993  -2595491.862  -6385089.650
10 0 59452   5742.000000  0    -595743.218  -3331926.574  -6007120.528
10 0 59452   5862.000000  0    -996197.910  -4003590.822  -5524237.257
10 0 59452   5982.000000  0   -1390446.287  -4598809.202  -4944784.191
10 0 59452   6102.000000  0   -1770192.770  -5107348.127  -4278801.516
10 0 59452   6222.000000  0   -2127213.042  -5520599.794  -3537861.690
10 0 59452   6342.000000  0   -2453528.819  -5831737.622  -2734876.701
10 0 59452   6462.000000  0   -2741582.622  -6035840.034  -1883878.889
10 0 59452   6582.000000  0   -2984408.827  -6129979.653   -999777.748
10 0 59452   6702.000000  0   -3175796.598  -6113274.015    -98095.879
10 0 59452   6822.000000  0   -3310439.544  -5986894.624    805309.850
10 0 59452   6942.000000  0   -3384068.392  -5754034.726   1694535.247
10 0 59452   7062.000000  0   -3393563.227  -5419835.805   2553918.242
10 0 59452   7182.000000  0   -3337041.925  -4991274.433   3368323.170
10 0 59452   7302.000000  0   -3213922.828  -4477013.634   4123414.052
10 0 59452   7422.000000  0   -3024960.358  -3887222.029   4805911.454
10 0 59452   7542.000000  0   -2772253.161  -3233365.141   5403827.254
10 0 59452   7662.000000  0   -2459224.051  -2527975.142   5906673.434
10 0 59452   7782.000000  0   -2090572.936  -1784405.185   6305641.685
10 0 59452   7902.000000  0   -1672204.082  -1016572.880   6593753.679
10 0 59452   8022.000000  0   -1211128.032   -238695.474   6765977.292
10 0 59452   8142.000000  0    -715342.907    534973.885   6819306.549
10 0 59452   8262.000000  0    -193696.088   1290405.952   6752811.543
10 0 59452   8382.000000  0     344273.610   2014049.609   6567654.107
10 0 59452   8502.000000  0     888510.204   2693075.006   6267068.468
10 0 59452   8622.000000  0    1428627.673   3315600.959   5856307.971
10 0 59452   8742.000000  0    1954107.173   3870905.275   5342559.050
10 0 59452   8862.000000  0    2454501.935   4349614.204   4734821.915
10 0 59452   8982.000000  0    2919646.668   4743866.675   4043757.684
10 0 59452   9102.000000  0    3339864.642   5047448.655   3281505.298
10 0 59452   9222.000000  0    3706171.377   5255899.279   2461472.313
10 0 59452   9342.000000  0    4010470.238   5366582.030   1598094.650
10 0 59452   9462.000000  0    4245729.347   5378716.329    706578.156
10 0 59452   9582.000000  0    4406140.894   5293375.679   -197376.656
10 0 59452   9702.000000  0    4487255.626   5113443.903  -1097860.685
10 0 59452   9822.000000  0    4486091.271   4843535.905  -1979043.735
10 0 59452   9942.000000  0    4401210.838   4489884.701  -2825460.097
10 0 59452  10062.000000  0    4232769.309   4060197.453  -3622285.679
10 0 59452  10182.000000  0    3982526.810   3563483.556  -4355599.876
10 0 59452  10302.000000  0    3653830.688   3009860.797  -5012626.302
10 0 59452  10422.000000  0    3251566.689   2410344.625  -5581950.343
10 0 59452  10542.000000  0    2782080.172   1776625.428  -6053709.169
10 0 59452  10662.000000  0    2253070.483   1120838.542  -6419751.753
10 0 59452  10782.000000  0    1673460.716    455332.702  -6673767.223
10 0 59452  10902.000000  0    1053247.303   -207558.623  -6811382.988
10 0 59452  11022.000000  0     403328.482   -855741.539  -6830233.398
10 0 59452  11142.000000  0    -264684.353  -1477577.248  -6729994.064
10 0 59452  11262.000000  0    -938668.205  -2062084.649  -6512386.523
10 0 59452  11382.000000  0   -1606203.224  -2599130.177  -6181153.183
10 0 59452  11502.000000  0   -2254796.303  -3079601.535  -5741999.321
10 0 59452  11622.000000  0   -2872110.108  -3495561.952  -5202505.262
10 0 59452  11742.000000  0   -3446196.569  -3840384.803  -4572008.118
10 0 59452  11862.000000  0   -3965729.563  -4108864.239  -3861450.712
10 0 59452  11982.000000  0   -4420231.100  -4297299.214  -3083201.244
10 0 59452  12102.000000  0   -4800287.536  -4403549.574  -2250844.861
10 0 59452  12222.000000  0   -5097749.869  -4427061.497  -1378949.499
10 0 59452  12342.000000  0   -5305913.044  -4368861.453   -482810.382
10 0 59452  12462.000000  0   -5419669.623  -4231518.443    421822.144
10 0 59452  12582.000000  0   -5435633.334  -4019074.990   1319026.956
10 0 59452  12702.000000  0   -5352227.660  -3736947.068   2193002.235
10 0 59452  12822.000000  0   -5169737.374  -3391795.579   3028352.901
10 0 59452  12942.000000  0   -4890322.263  -2991373.961   3810369.291
10 0 59452  13062.000000  0   -4517992.960  -2544355.391   4525292.324
10 0 59452  13182.000000  0   -4058548.457  -2060143.447   5160558.044
10 0 59452  13302.000000  0   -3519479.661  -1548673.032   5705016.504
10 0 59452  13422.000000  0   -2909841.614  -1020205.775   6149124.905
10 0 59452  13542.000000  0   -2240094.763   -485122.367   6485111.499
10 0 59452  13662.000000  0   -1521918.937     46282.963   6707105.083
10 0 59452  13782.000000  0    -768006.167    563999.152   6811230.256
10 0 59452  13902.000000  0       8164.139   1058485.462   6795670.891
10 0 59452  14022.000000  0     792565.730   1520846.776   6660699.930
10 0 59452  14142.000000  0    1570878.392   1942993.862   6408674.898
10 0 59452  14262.000000  0    2328748.566   2317784.919   6043998.624
10 0 59452  14382.000000  0    3052053.835   2639147.140   5573047.797
10 0 59452  14502.000000  0    3727168.849   2902177.211   5004067.931
10 0 59452  14622.000000  0    4341225.492   3103218.283   4347033.965
10 0 59452  14742.000000  0    4882362.523   3239911.659   3613481.304
10 0 59452  14862.000000  0    5339964.513   3311223.225   2816306.580
10 0 59452  14982.000000  0    5704877.054   3317440.352   1969538.602
10 0 59452  15102.000000  0    5969595.791   3260142.926   1088088.946
10 0 59452  15222.000000  0    6128425.695   3142147.345    187482.684
10 0 59452  15342.000000  0    6177603.885   2967423.809   -716424.012
10 0 59452  15462.000000  0    6115383.590   2740988.975  -1607731.864
10 0 59452  15582.000000  0    5942077.072   2468779.047  -2470785.219
10 0 59452  15702.000000  0    5660058.240   2157506.315  -3290453.633
10 0 59452  15822.000000  0    5273723.810   1814500.722  -4052400.796
10 0 59452  15942.000000  0    4789414.952   1447541.735  -4743336.140
10 0 59452  16062.000000  0    4215300.588   1064685.248  -5351242.204
10 0 59452  16182.000000  0    3561229.338    674090.665  -5865575.211
10 0 59452  16302.000000  0    2838552.254    283850.933  -6277438.380
10 0 59452  16422.000000  0    2059919.619    -98170.828  -6579724.213
10 0 59452  16542.000000  0    1239058.346   -464495.102  -6767225.697
10 0 59452  16662.000000  0     390531.825   -808168.313  -6836717.927
10 0 59452  16782.000000  0    -470515.270  -1122890.751  -6787006.361
10 0 59452  16902.000000  0   -1328620.141  -1403128.392  -6618944.532
10 0 59452  17022.000000  0   -2168273.137  -1644208.034  -6335421.809
10 0 59452  17142.000000  0   -2974191.988  -1842394.016  -5941318.181
10 0 59452  17262.000000  0   -3731594.123  -1994945.562  -5443429.553
10 0 59452  17382.000000  0   -4426467.484  -2100154.999  -4850363.027
10 0 59452  17502.000000  0   -5045832.945  -2157364.576  -4172399.176
10 0 59452  17622.000000  0   -5577992.669  -2166961.884  -3421324.556
10 0 59452  17742.000000  0   -6012760.489  -2130353.658  -2610234.837
10 0 59452  17862.000000  0   -6341667.462  -2049917.615  -1753310.869
10 0 59452  17982.000000  0   -6558138.025  -1928933.433   -865571.833
10 0 59452  18102.000000  0   -6657631.291  -1771494.107     37390.976
10 0 59452  18222.000000  0   -6637743.617  -1582399.448    939694.080
10 0 59452  18342.000000  0   -6498268.430  -1367034.030   1825449.817
10 0 59452  18462.000000  0   -6241211.361  -1131233.384   2679055.397
10 0 59452  18582.000000  0   -5870760.617   -881141.666   3485476.214
10 0 59452  18702.000000  0   -5393213.630   -623063.757   4230518.239
10 0 59452  18822.000000  0   -4816859.795   -363316.610   4901081.902
10 0 59452  18942.000000  0   -4151826.857   -108083.588   5485391.606
10 0 59452  19062.000000  0   -3409894.468    136725.574   5973200.815
10 0 59452  19182.000000  0   -2604276.282    365605.549   6355967.870
10 0 59452  19302.000000  0   -1749377.605    573573.597   6626999.575
99
